sat31450
1 31450U 99025BUN 20046.28467408  .00001460  00000-0  83972-4 0  9993
2 31450  98.6123 230.3537 0325667  90.9470 272.9062 14.79111971679365
